CIC_OEM_VERS = 2.0
CREATION_DATE = 2025-01-31T16:21:49.719496
ORIGINATOR = ISAE-SUPAERO


META_START
OBJECT_NAME = Sat
OBJECT_ID = Sat
CENTER_NAME = Earth
REF_FRAME = EME2000
TIME_SYSTEM = UTC
START_TIME = 2025-01-31T00:00:00.000
USEABLE_START_TIME = 2025-01-31T00:00:00.000
USEABLE_STOP_TIME = 2025-01-31T23:55:00.000
STOP_TIME = 2025-01-31T23:55:00.000
INTERPOLATION = lagrange
INTERPOLATION_DEGREE = 5
META_STOP



60706 0.0 125.13974 -1848.1308000000001 6623.451599999999 -4.1642921 6.1146772 1.7702129
60706 420.0 -1575.0213 824.18435 6638.701 -3.7858292000000002 6.3816502 -1.7001481
60706 840.0 -2941.7248 3321.8816 5245.1350999999995 -2.6032276000000003 5.2957783 -4.8190264
60706 1260.0 -3683.7131000000004 5113.7336 2736.273 -0.8633085600000001 3.0799944 -6.9190487
60706 1680.0 -3640.8766 5816.2335 -357.75861 1.0638988999999999 0.20409708000000001 -7.546502800000001
60706 2100.0 -2822.1904 5279.342000000001 -3375.4382 2.7632963 -2.7133186 -6.562399900000001
60706 2520.0 -1403.7023000000002 3620.2849 -5673.2300000000005 3.8704904 -5.0448401 -4.1857826
60706 2940.0 312.75635 1193.5548000000001 -6766.7373 4.1555949000000005 -6.301723699999999 -0.93003833
60706 3360.0 1963.334 -1485.3676 -6427.798 3.5632793 -6.2259328 2.5140357
60706 3780.0 3199.9974 -3851.1457000000005 -4729.9633 2.2197656 -4.8373165 5.4255998
60706 4200.0 3761.6159 -5404.4709 -2031.6827 0.40605551 -2.4258509 7.1920895
60706 4620.0 3528.6902000000005 -5816.2119 1096.8143 -1.4953926 0.50068449 7.4365284
60706 5040.0 2550.0258 -4998.8205 3992.919 -3.080645 3.3209697 6.1055983
60706 5460.0 1032.8004 -3125.7318 6043.4726 -4.0142295 5.4379201 3.4831309000000004
60706 5880.0 -702.4391700000001 -592.84613 6814.8596 -4.1002431999999995 6.4067012000000005 0.12337350000000001
60706 6300.0 -2289.1335 2065.0729 6142.491900000001 -3.3190999000000003 6.0220786 -3.2688862
60706 6720.0 -3390.4555 4285.241099999999 4163.6171 -1.8311300000000001 4.3586615 -5.9779774
60706 7140.0 -3771.1061 5594.2074 1298.5153 0.052105582 1.7605334000000001 -7.418080700000001
60706 7560.0 -3348.0996 5710.954 -1844.0529 1.9253708 -1.2142061000000002 -7.2742441
60706 7980.0 -2212.1641 4611.7210000000005 -4593.2155999999995 3.3849894 -3.9237840000000004 -5.5802598
60706 8400.0 -606.26657 2533.1395 -6365.3847000000005 4.1222296 -5.7921014 -2.7079865
60706 8820.0 1127.7378 -80.735897 -6788.7012 3.9866331 -6.4309783 0.72687389
60706 9240.0 2624.1217 -2677.7384 -5777.1638 3.0112541999999998 -5.7138993000000005 4.0030738999999995
60706 9660.0 3567.5625 -4710.463 -3545.0414 1.4002981 -3.7915139 6.4352998
60706 10080.0 3758.3197000000005 -5749.303400000001 -563.03539 -0.50875426 -1.0656531 7.5087524000000005
60706 10500.0 3155.1609 -5573.5739 2538.0667000000003 -2.3118251 1.8874784 6.992126000000001
60706 10920.0 1885.3316000000002 -4220.161400000001 5101.490900000001 -3.6260288000000003 4.441099 4.9946151
60706 11340.0 217.33158 -1975.4453 6584.597 -4.1739911 6.0558154 1.9402997
60706 11760.0 -1496.5187 686.46918 6672.9714 -3.840185 6.3918906 -1.5282137
60706 12180.0 -2893.4767 3202.7259 5345.4403 -2.6915648 5.3739737 -4.681146399999999
60706 12600.0 -3676.7571000000003 5039.196400000001 2882.8615 -0.9667951100000001 3.2094864 -6.8444517
60706 13020.0 -3676.8099 5802.424400000001 -196.5025 0.96695736 0.35846698 -7.552745700000001
60706 13440.0 -2893.6573 5329.7053 -3233.9688 2.6941963 -2.5678123 -6.6486694
60706 13860.0 -1495.3746 3723.8186 -5581.2733 3.8445702 -4.9402679 -4.3335126
60706 14280.0 220.40464000000003 1328.1647 -6743.8371 4.1780055 -6.2603108 -1.1058572
60706 14700.0 1889.7462 -1348.2208 -6478.0722000000005 3.6285008 -6.2553007 2.3476685
60706 15120.0 3160.4277 -3740.2105 -4841.9245 2.3135936000000004 -4.9304329 5.303344
60706 15540.0 3764.0577000000003 -5342.741900000001 -2181.1385 0.50875795 -2.5628999 7.1389275
60706 15960.0 3572.415 -5816.3943 941.70941 -1.4050461 0.34827921 7.4631354000000005
60706 16380.0 2625.7125 -5060.6557999999995 3865.0521000000003 -3.0213392 3.1847640999999998 6.2063119
60706 16800.0 1124.59 -3236.3462999999997 5970.091200000001 -3.9982274 5.345929 3.6374256999999997
60706 17220.0 -613.83118 -729.2077800000001 6812.180200000001 -4.1312245 6.3783846 0.29990346
60706 17640.0 -2222.5846 1931.6862 6212.2725 -3.3913453000000002 6.0644076 -3.1065761000000003
60706 18060.0 -3361.2152 4184.0456 4294.2391 -1.9290977 4.4623198 -5.8640677
60706 18480.0 -3785.5292999999997 5546.831 1462.6302 -0.052823487 1.907391 -7.378744
60706 18900.0 -3403.7947000000004 5728.5865 -1681.4875 1.8377192 -1.0577094999999999 -7.3209853
60706 19320.0 -2297.3707999999997 4690.7213 -4466.8188 3.3349188 -3.7938823000000004 -5.702145300000001
60706 19740.0 -700.71726 2652.632 -6299.2972 4.1234465 -5.723858900000001 -2.8682131
60706 20160.0 1043.9985 52.280841 -6789.9997 4.03482 -6.433163899999999 0.5649655699999999
60706 20580.0 2567.7969 -2559.1304 -5840.052900000001 3.0904507 -5.7777691 3.8767147
60706 21000.0 3547.5177000000003 -4628.2961 -3649.4296000000004 1.4905589000000001 -3.8974283 6.3662608
60706 21420.0 3775.2314 -5716.361 -683.11711 -0.42566369 -1.1904344000000002 7.5032174000000005
60706 21840.0 3203.0063999999998 -5593.1861 2428.4323 -2.2492731 1.7650196 7.0462210999999995
60706 22260.0 1953.3311 -4287.1724 5025.5407000000005 -3.5932288 4.3399622 5.098838
60706 22680.0 291.78540999999996 -2077.3271 6560.5113 -4.1767815 5.993769599999999 2.0802454
60706 23100.0 -1431.2362 569.6372700000001 6711.5161 -3.8810663 6.3850283 -1.3743424
60706 23520.0 -2852.916 3096.4979 5446.0866 -2.7667781000000002 5.4312524 -4.5447423
60706 23940.0 -3672.3177 4969.5828 3028.0573 -1.0628545999999999 3.324734 -6.7629849
60706 24360.0 -3713.3481 5789.1088 -32.717819 0.87241832 0.5054199699999999 -7.549512399999999
60706 24780.0 -2965.2635 5378.3953 -3086.5297 2.6255845 -2.4261252 -6.728256099999999
60706 25200.0 -1586.7329 3824.2265 -5482.4834 3.8197265000000002 -4.8402131 -4.4740987
60706 25620.0 129.0183 1457.7383 -6711.7627 4.201311899999999 -6.223509600000001 -1.2703316
60706 26040.0 1816.9745 -1217.3672 -6513.2 3.6924045999999997 -6.2865162 2.198491
60706 26460.0 3120.0269 -3634.7135000000003 -4930.6727 2.4003987 -5.0167199 5.201619300000001
60706 26880.0 3761.2689 -5281.0643 -2299.5182999999997 0.59778405 -2.6811663 7.1008586
60706 27300.0 3604.3231 -5806.745400000001 820.99454 -1.3313103000000002 0.22268189000000002 7.4892645
60706 27720.0 2683.4789 -5101.7969 3767.0277 -2.9743819 3.0729744 6.2873515
60706 28140.0 1195.0955000000001 -3318.1565 5915.195 -3.9847763 5.2659475 3.7592711
60706 28560.0 -545.2034 -835.3262500000001 6813.8578 -4.1537547 6.3448329999999995 0.44398185
60706 28980.0 -2170.8115000000003 1823.2456000000002 6274.9728 -3.4483302 6.0880817 -2.9647107999999998
60706 29400.0 -3338.9467999999997 4097.4562000000005 4410.6482000000005 -2.0134567 4.5460456 -5.7547473
60706 29820.0 -3800.9664 5505.138599999999 1611.0324 -0.14651663 2.0351576000000002 -7.3337148
60706 30240.0 -3456.7896 5745.000400000001 -1530.4992 1.7563343 -0.91442206 -7.354668800000001
60706 30660.0 -2378.1657 4764.263900000001 -4345.9337000000005 3.2869462 -3.6711374 -5.8088047
60706 31080.0 -794.40757 2771.6618 -6236.0193 4.1181152 -5.645295 -3.0290326
60706 31500.0 957.5599100000001 191.78906 -6800.4101 4.0754966 -6.4202419 0.38950143000000004
60706 31920.0 2506.963 -2429.0953 -5920.464400000001 3.1695689000000002 -5.835198800000001 3.7253229
60706 32340.0 3525.0724 -4535.166 -3782.4236 1.5907839 -4.0123657 6.2719559
60706 32760.0 3795.4632 -5679.250400000001 -839.9554300000001 -0.32645074 -1.3372637 7.4859325
60706 33180.0 3260.8659 -5618.8738 2281.3109 -2.1726015000000003 1.6185357 7.1080725000000005
60706 33600.0 2035.7844 -4368.8598 4918.709900000001 -3.5546804 4.2243787 5.224931499999999
60706 34020.0 381.02361 -2196.8752000000004 6515.4980000000005 -4.1834056 5.931972399999999 2.2433089
60706 34440.0 -1354.053 437.69045 6736.9713 -3.9307774 6.3887271000000005 -1.2075576000000001
60706 34860.0 -2804.0117 2979.9771 5536.4412999999995 -2.8494232999999998 5.4997917 -4.4077993
60706 35280.0 -3662.1219 4893.166 3164.6195000000002 -1.1620175 3.4450779000000002 -6.6841952000000004
60706 35700.0 -3744.6987999999997 5769.9494 121.54950000000001 0.7772614800000001 0.65311708 -7.5464559
60706 36120.0 -3032.128 5421.5956 -2947.5443 2.5547488 -2.2822669 -6.8030066
60706 36540.0 -1675.3877 3921.5080000000003 -5388.8668 3.7887955000000004 -4.7313619 -4.6116264000000005
60706 36960.0 36.817749000000006 1589.4871 -6683.9276 4.2175373 -6.1733938 -1.4432309
60706 37380.0 1741.2216 -1079.3318000000002 -6558.7192000000005 3.7527752999999997 -6.3068131 2.0286984
60706 37800.0 3076.8371 -3519.572 -5040.3504 2.4923306 -5.1035824000000005 5.071598
60706 38220.0 3759.9644 -5213.3876 -2450.2672000000002 0.70160946 -2.8161521 7.0390211
60706 38640.0 3645.1545 -5800.8301 661.2556 -1.2382035 0.06902300800000001 7.5090709
60706 39060.0 2757.4978 -5158.3877999999995 3632.1376 -2.9120295 2.9338761 6.3839716
60706 39480.0 1286.3271000000002 -3424.6646 5833.3829000000005 -3.9662193 5.170976 3.9108324
60706 39900.0 -456.0956 -968.92845 6801.661099999999 -4.182126599999999 6.3129158 0.61802852
60706 40320.0 -2102.5314 1690.7832 6334.3038 -3.5173679000000004 6.1252718999999995 -2.8041025
60706 40740.0 -3305.818 3994.0080000000003 4528.7042 -2.1088535999999998 4.644603699999999 -5.6406239
60706 41160.0 -3810.2375 5452.9304 1762.8546000000001 -0.24844964 2.1747147 -7.2897917
60706 41580.0 -3506.5437 5755.1269 -1377.016 1.6689917 -0.76248302 -7.3909846
60706 42000.0 -2458.1567999999997 4835.111 -4223.611599999999 3.2329591 -3.5392203 -5.9182905
60706 42420.0 -887.8894200000001 2888.6457 -6171.2471 4.1091972 -5.5617085 -3.1887777
60706 42840.0 870.58123 329.98901 -6807.4757 4.1137478000000005 -6.4031462 0.2141722
60706 43260.0 2444.7212999999997 -2298.5913 -5997.974099999999 3.2470387 -5.888407900000001 3.5714263
60706 43680.0 3500.8175 -4440.0455 -3914.0708 1.6908384 -4.1245225 6.1730065000000005
